{
"type": "FeatureCollection",
"name": "batas-kelurahan",
"crs": { "type": "name", "properties": { "name": "urn:ogc:def:crs:OGC:1.3:CRS84" } },
"xy_coordinate_resolution": 1e-06,
"features": [
{ "type": "Feature", "properties": { }, "geometry": { "type": "MultiPolygon", "coordinates": [ [ [ [ 111.066292, -7.81402 ], [ 111.066353, -7.81371 ], [ 111.066406, -7.81361 ], [ 111.066597, -7.81352 ], [ 111.066933, -7.81359 ], [ 111.067139, -7.81363 ], [ 111.067238, -7.81357 ], [ 111.067451, -7.81323 ], [ 111.067719, -7.81284 ], [ 111.067909, -7.81256 ], [ 111.067978, -7.81239 ], [ 111.067963, -7.8122 ], [ 111.067909, -7.81199 ], [ 111.067902, -7.8118 ], [ 111.068291, -7.81122 ], [ 111.06852, -7.8107 ], [ 111.06881, -7.81022 ], [ 111.069038, -7.80975 ], [ 111.069153, -7.80955 ], [ 111.069252, -7.80946 ], [ 111.069481, -7.80941 ], [ 111.069603, -7.8093 ], [ 111.069969, -7.80899 ], [ 111.070168, -7.80884 ], [ 111.070259, -7.80868 ], [ 111.070236, -7.80847 ], [ 111.070168, -7.80807 ], [ 111.070183, -7.80791 ], [ 111.070267, -7.8078 ], [ 111.070633, -7.80785 ], [ 111.070824, -7.8078 ], [ 111.071121, -7.80778 ], [ 111.071228, -7.80777 ], [ 111.071457, -7.80756 ], [ 111.071602, -7.80737 ], [ 111.071632, -7.80724 ], [ 111.071899, -7.80704 ], [ 111.072319, -7.80692 ], [ 111.073059, -7.80707 ], [ 111.073608, -7.80731 ], [ 111.074181, -7.80752 ], [ 111.074417, -7.80758 ], [ 111.074738, -7.80774 ], [ 111.07502, -7.80789 ], [ 111.075493, -7.80821 ], [ 111.075859, -7.80849 ], [ 111.075844, -7.80878 ], [ 111.075867, -7.80906 ], [ 111.07592, -7.80919 ], [ 111.07621, -7.80942 ], [ 111.076607, -7.80987 ], [ 111.076881, -7.81016 ], [ 111.077919, -7.81075 ], [ 111.078392, -7.81098 ], [ 111.078659, -7.81106 ], [ 111.079018, -7.81108 ], [ 111.079262, -7.81103 ], [ 111.07933, -7.811 ], [ 111.079933, -7.81112 ], [ 111.080559, -7.81124 ], [ 111.081268, -7.81143 ], [ 111.081841, -7.81171 ], [ 111.08239, -7.81206 ], [ 111.08213, -7.81245 ], [ 111.081673, -7.81353 ], [ 111.081711, -7.81413 ], [ 111.081718, -7.81426 ], [ 111.08213, -7.81471 ], [ 111.081757, -7.81537 ], [ 111.081192, -7.81588 ], [ 111.081017, -7.81604 ], [ 111.080872, -7.81629 ], [ 111.08049, -7.81674 ], [ 111.080322, -7.81693 ], [ 111.080238, -7.8171 ], [ 111.080162, -7.81732 ], [ 111.079872, -7.81776 ], [ 111.079643, -7.81812 ], [ 111.079468, -7.81869 ], [ 111.079407, -7.81897 ], [ 111.07943, -7.81907 ], [ 111.079582, -7.81925 ], [ 111.07972, -7.81935 ], [ 111.079788, -7.81948 ], [ 111.079788, -7.81961 ], [ 111.079643, -7.81978 ], [ 111.079483, -7.81989 ], [ 111.079292, -7.82013 ], [ 111.079147, -7.82028 ], [ 111.078972, -7.82038 ], [ 111.078903, -7.8205 ], [ 111.078911, -7.82063 ], [ 111.079208, -7.821 ], [ 111.079308, -7.82111 ], [ 111.079231, -7.82134 ], [ 111.079163, -7.82149 ], [ 111.07917, -7.82181 ], [ 111.07917, -7.82196 ], [ 111.079086, -7.82213 ], [ 111.07872, -7.82248 ], [ 111.078583, -7.82239 ], [ 111.078522, -7.82234 ], [ 111.078209, -7.82234 ], [ 111.077972, -7.82238 ], [ 111.077538, -7.82245 ], [ 111.077461, -7.82258 ], [ 111.07724, -7.82239 ], [ 111.076859, -7.82218 ], [ 111.076752, -7.82211 ], [ 111.076576, -7.82163 ], [ 111.076141, -7.82141 ], [ 111.075577, -7.82113 ], [ 111.07518, -7.82094 ], [ 111.074783, -7.82081 ], [ 111.07444, -7.82081 ], [ 111.074333, -7.82086 ], [ 111.073997, -7.82091 ], [ 111.073761, -7.82086 ], [ 111.07357, -7.82075 ], [ 111.073471, -7.82058 ], [ 111.073441, -7.82043 ], [ 111.073479, -7.82027 ], [ 111.073479, -7.82014 ], [ 111.07341, -7.82 ], [ 111.073311, -7.81991 ], [ 111.073174, -7.81992 ], [ 111.072998, -7.82001 ], [ 111.072891, -7.82014 ], [ 111.0728, -7.82044 ], [ 111.072693, -7.82087 ], [ 111.072639, -7.8212 ], [ 111.072662, -7.82139 ], [ 111.072792, -7.82189 ], [ 111.072746, -7.82206 ], [ 111.072578, -7.82236 ], [ 111.072502, -7.82257 ], [ 111.072502, -7.82273 ], [ 111.072578, -7.82281 ], [ 111.072823, -7.82305 ], [ 111.072891, -7.82323 ], [ 111.072838, -7.82337 ], [ 111.072578, -7.82378 ], [ 111.07251, -7.82398 ], [ 111.072388, -7.8244 ], [ 111.072327, -7.82455 ], [ 111.072197, -7.82463 ], [ 111.07193, -7.82472 ], [ 111.071609, -7.8248 ], [ 111.070747, -7.82517 ], [ 111.070702, -7.82533 ], [ 111.070663, -7.82555 ], [ 111.070679, -7.82608 ], [ 111.070763, -7.82641 ], [ 111.070839, -7.82651 ], [ 111.071129, -7.82671 ], [ 111.071327, -7.82684 ], [ 111.071381, -7.82702 ], [ 111.071373, -7.82743 ], [ 111.071289, -7.82761 ], [ 111.071159, -7.82776 ], [ 111.071037, -7.82762 ], [ 111.070976, -7.82754 ], [ 111.070793, -7.82736 ], [ 111.070671, -7.82724 ], [ 111.070389, -7.82717 ], [ 111.069603, -7.82696 ], [ 111.069023, -7.82667 ], [ 111.068863, -7.82648 ], [ 111.068817, -7.8262 ], [ 111.068779, -7.82542 ], [ 111.068657, -7.82527 ], [ 111.068512, -7.82518 ], [ 111.067947, -7.82493 ], [ 111.06736, -7.82466 ], [ 111.067062, -7.82453 ], [ 111.066612, -7.82421 ], [ 111.066437, -7.8241 ], [ 111.066299, -7.82401 ], [ 111.06588, -7.82383 ], [ 111.065529, -7.82372 ], [ 111.065422, -7.82369 ], [ 111.065041, -7.82362 ], [ 111.064873, -7.82358 ], [ 111.064682, -7.82406 ], [ 111.06427, -7.82485 ], [ 111.063782, -7.82507 ], [ 111.063217, -7.82512 ], [ 111.062569, -7.82509 ], [ 111.06179, -7.82499 ], [ 111.061287, -7.8249 ], [ 111.060669, -7.82473 ], [ 111.059929, -7.82449 ], [ 111.059334, -7.82428 ], [ 111.059303, -7.82377 ], [ 111.059334, -7.82364 ], [ 111.059372, -7.82346 ], [ 111.059471, -7.8232 ], [ 111.05983, -7.82288 ], [ 111.060112, -7.82262 ], [ 111.060249, -7.82248 ], [ 111.060287, -7.82234 ], [ 111.060349, -7.82181 ], [ 111.060432, -7.82146 ], [ 111.060509, -7.82131 ], [ 111.060799, -7.82123 ], [ 111.060989, -7.8212 ], [ 111.061058, -7.8211 ], [ 111.061073, -7.82093 ], [ 111.06105, -7.82024 ], [ 111.061081, -7.82002 ], [ 111.061218, -7.81987 ], [ 111.06144, -7.81979 ], [ 111.061607, -7.81984 ], [ 111.06189, -7.82015 ], [ 111.06205, -7.82031 ], [ 111.062248, -7.82042 ], [ 111.062363, -7.82044 ], [ 111.062599, -7.8203 ], [ 111.062752, -7.82016 ], [ 111.062798, -7.82006 ], [ 111.062607, -7.81976 ], [ 111.062569, -7.81965 ], [ 111.06266, -7.81937 ], [ 111.062721, -7.81928 ], [ 111.06308, -7.81922 ], [ 111.063187, -7.81891 ], [ 111.063232, -7.81861 ], [ 111.063232, -7.81843 ], [ 111.063278, -7.81831 ], [ 111.063393, -7.81822 ], [ 111.063759, -7.8182 ], [ 111.063942, -7.81819 ], [ 111.064072, -7.81809 ], [ 111.064209, -7.81788 ], [ 111.064293, -7.81756 ], [ 111.06443, -7.8172 ], [ 111.064568, -7.81696 ], [ 111.06469, -7.81686 ], [ 111.064957, -7.81681 ], [ 111.065201, -7.81684 ], [ 111.065323, -7.81688 ], [ 111.065437, -7.81683 ], [ 111.065498, -7.81659 ], [ 111.065453, -7.81624 ], [ 111.065331, -7.81608 ], [ 111.065208, -7.81581 ], [ 111.065147, -7.81549 ], [ 111.06517, -7.81518 ], [ 111.065262, -7.81497 ], [ 111.065521, -7.81476 ], [ 111.065849, -7.8146 ], [ 111.066048, -7.81453 ], [ 111.06617, -7.81443 ], [ 111.066292, -7.81402 ] ] ] ] } }
]
}
